{
  "type": "FeatureCollection",
  "metadata": {
    "layer": "national_parks",
    "version": "1.0.0"
  },
  "features": [
    {
      "type": "Feature",
      "properties": {
        "id": "national_parks-1",
        "name": "Chitwan National Park",
        "category": "national_parks",
        "bufferMeters": 0
      },
      "geometry": {
        "type": "Point",
        "coordinates": [
          84.4444,
          27.5333
        ]
      }
    },
    {
      "type": "Feature",
      "properties": {
        "id": "national_parks-2",
        "name": "Sagarmatha National Park",
        "category": "national_parks",
        "bufferMeters": 0
      },
      "geometry": {
        "type": "Point",
        "coordinates": [
          86.7333,
          27.95
        ]
      }
    },
    {
      "type": "Feature",
      "properties": {
        "id": "national_parks-3",
        "name": "Langtang National Park",
        "category": "national_parks",
        "bufferMeters": 0
      },
      "geometry": {
        "type": "Point",
        "coordinates": [
          85.5,
          28.25
        ]
      }
    },
    {
      "type": "Feature",
      "properties": {
        "id": "national_parks-4",
        "name": "Rara National Park",
        "category": "national_parks",
        "bufferMeters": 0
      },
      "geometry": {
        "type": "Point",
        "coordinates": [
          82.0833,
          29.5
        ]
      }
    },
    {
      "type": "Feature",
      "properties": {
        "id": "national_parks-5",
        "name": "Shey Phoksundo National Park",
        "category": "national_parks",
        "bufferMeters": 0
      },
      "geometry": {
        "type": "Point",
        "coordinates": [
          82.8833,
          29.35
        ]
      }
    },
    {
      "type": "Feature",
      "properties": {
        "id": "national_parks-6",
        "name": "Khaptad National Park",
        "category": "national_parks",
        "bufferMeters": 0
      },
      "geometry": {
        "type": "Point",
        "coordinates": [
          81.1667,
          29.3833
        ]
      }
    },
    {
      "type": "Feature",
      "properties": {
        "id": "national_parks-7",
        "name": "Bardiya National Park",
        "category": "national_parks",
        "bufferMeters": 0
      },
      "geometry": {
        "type": "Point",
        "coordinates": [
          81.3333,
          28.4667
        ]
      }
    },
    {
      "type": "Feature",
      "properties": {
        "id": "national_parks-8",
        "name": "Makalu Barun National Park",
        "category": "national_parks",
        "bufferMeters": 0
      },
      "geometry": {
        "type": "Point",
        "coordinates": [
          87.1667,
          27.75
        ]
      }
    },
    {
      "type": "Feature",
      "properties": {
        "id": "national_parks-9",
        "name": "Shivapuri Nagarjun National Park",
        "category": "national_parks",
        "bufferMeters": 0
      },
      "geometry": {
        "type": "Point",
        "coordinates": [
          85.3833,
          27.8
        ]
      }
    },
    {
      "type": "Feature",
      "properties": {
        "id": "national_parks-10",
        "name": "Banke National Park",
        "category": "national_parks",
        "bufferMeters": 0
      },
      "geometry": {
        "type": "Point",
        "coordinates": [
          81.8,
          28.1833
        ]
      }
    },
    {
      "type": "Feature",
      "properties": {
        "id": "national_parks-11",
        "name": "Shuklaphanta National Park",
        "category": "national_parks",
        "bufferMeters": 0
      },
      "geometry": {
        "type": "Point",
        "coordinates": [
          80.25,
          28.85
        ]
      }
    },
    {
      "type": "Feature",
      "properties": {
        "id": "national_parks-12",
        "name": "Parsa National Park",
        "category": "national_parks",
        "bufferMeters": 0
      },
      "geometry": {
        "type": "Point",
        "coordinates": [
          84.8667,
          27.4667
        ]
      }
    },
    {
      "type": "Feature",
      "properties": {
        "id": "national_parks-13",
        "name": "Koshi Tappu Wildlife Reserve",
        "category": "national_parks",
        "bufferMeters": 0
      },
      "geometry": {
        "type": "Point",
        "coordinates": [
          87.0,
          26.65
        ]
      }
    },
    {
      "type": "Feature",
      "properties": {
        "id": "national_parks-14",
        "name": "Annapurna Conservation Area",
        "category": "national_parks",
        "bufferMeters": 0
      },
      "geometry": {
        "type": "Point",
        "coordinates": [
          83.9667,
          28.7667
        ]
      }
    },
    {
      "type": "Feature",
      "properties": {
        "id": "national_parks-15",
        "name": "Manaslu Conservation Area",
        "category": "national_parks",
        "bufferMeters": 0
      },
      "geometry": {
        "type": "Point",
        "coordinates": [
          84.7333,
          28.5333
        ]
      }
    }
  ]
}